[{"OBJECT_NAME":"STARLINK-34904","OBJECT_ID":"2025-184B","EPOCH":"2026-03-09T17:20:54.889728","MEAN_MOTION":15.05634337,"ECCENTRICITY":0.00013054,"INCLINATION":97.602,"RA_OF_ASC_NODE":122.6597,"ARG_OF_PERICENTER":115.1435,"MEAN_ANOMALY":244.9928,"EPHEMERIS_TYPE":0,"CLASSIFICATION_TYPE":"U","NORAD_CAT_ID":65274,"ELEMENT_SET_NO":999,"REV_AT_EPOCH":3130,"BSTAR":0.0003313828,"MEAN_MOTION_DOT":4.722e-5,"MEAN_MOTION_DDOT":0},{"OBJECT_NAME":"UNKNOWN","OBJECT_ID":"","EPOCH":"2026-03-07T15:14:41.564256","MEAN_MOTION":13.5413212,"ECCENTRICITY":0.0691594,"INCLINATION":65.6692,"RA_OF_ASC_NODE":150.3342,"ARG_OF_PERICENTER":189.8468,"MEAN_ANOMALY":168.843,"EPHEMERIS_TYPE":0,"CLASSIFICATION_TYPE":"U","NORAD_CAT_ID":87553,"ELEMENT_SET_NO":999,"REV_AT_EPOCH":60274,"BSTAR":0.0016336,"MEAN_MOTION_DOT":5.279e-5,"MEAN_MOTION_DDOT":0}]
